TIANMU-1 07             
1 57399U 23101A   26065.57454230  .00008352  00000+0  29795-3 0  9991
2 57399  97.2728 118.5929 0004609 142.4105 217.7458 15.29118809145964
STARLINK-31955          
1 59939U 24106T   26068.09245399 -.00001235  00000+0 -35368-4 0  9992
2 59939  43.0036 335.7110 0001578 261.2872  98.7801 15.27582623100478
